EUTELSAT 21B            
1 38992U 12062B   25245.74249848  .00000131  00000+0  00000+0 0  9999
2 38992   0.0699 341.6894 0002587 187.2127 102.1212  1.00273987 46941
EUTELSAT 70B            
1 39020U 12069A   25245.75220520 -.00000043  00000+0  00000+0 0  9999
2 39020   0.0655 341.5778 0003721 185.8355 156.0185  1.00272834 46626
EUTELSAT 117 WEST A     
1 39122U 13012A   25245.35811887 -.00000011  00000+0  00000+0 0  9994
2 39122   0.0593 286.7894 0002977 243.6290 183.4480  1.00270918 45545
EUTELSAT 7B             
1 39163U 13022A   25245.88227742  .00000049  00000+0  00000+0 0  9999
2 39163   0.0690 343.7847 0001397  72.0314 251.0670  1.00272228 45073
EXPRESS-AT1             
1 39612U 14010A   25245.60651137  .00000080  00000+0  00000+0 0  9990
2 39612   0.0315 256.9514 0000631 192.5148 166.8764  1.00271089 41937
EXPRESS-AT2             
1 39613U 14010B   25245.90862421 -.00000280  00000+0  00000+0 0  9997
2 39613   0.0147 220.2761 0000490 225.6887   3.2895  1.00272322 41615
EUTELSAT 3B             
1 39773U 14030A   25245.88158409  .00000021  00000+0  00000+0 0  9999
2 39773   0.0656 335.6412 0004575 185.7877 141.3221  1.00274105 41184
EUTELSAT 115 WEST B     
1 40425U 15010B   25245.64404471 -.00000024  00000+0  00000+0 0  9995
2 40425   0.0141  36.0142 0000473 218.1332 204.8463  1.00271915 38513
